satname,norad_id,inclination_deg,eccentricity,mean_motion_rev_per_day,perigee_km,apogee_km,l1,l2
STARLINK-1008,44714,53.0742,0.0002474,15.12239828,527.6620316013132,531.0798665345119,1 44714U 19074B   26014.66668981  .00055856  00000+0  31867-2 0  9999,2 44714  53.0742  69.0850 0002474  62.7883 153.9379 15.12239828  5803
STARLINK-1012,44718,53.0751,9.46e-05,15.12040222,529.3253394663689,530.6323549846629,1 44718U 19074F   26014.66668981  .00053949  00000+0  30965-2 0  9992,2 44718  53.0751  69.0885 0000946  83.8208 250.0510 15.12040222  5840
STARLINK-1017,44723,53.0497,0.0001716,15.1996273,504.7718350521809,507.1344547899189,1 44723U 19074L   26014.56086977  .00020372  00000+0  94723-3 0  9993,2 44723  53.0497  60.3506 0001716 159.0314 201.0752 15.19962730340724
STARLINK-1019,44724,53.0498,0.0008229,15.64163651,370.08747131640666,381.2028459931207,1 44724U 19074M   26014.60951107  .00102384  00000+0  10487-2 0  9993,2 44724  53.0498  45.3218 0008229   2.7284 357.3774 15.64163651340932
STARLINK-1020,44725,53.0555,0.000128,15.06405423,546.3084947862235,548.0813797621649,1 44725U 19074N   26014.47926374  .00006254  00000+0  43832-3 0  9997,2 44725  53.0555  89.9818 0001280  88.0764 272.0372 15.06405423340295
STARLINK-1031,44736,53.0465,0.0004412,15.68597674,359.93753180362637,365.88583316104905,1 44736U 19074Z   26014.34372505  .00131255  00000+0  11209-2 0  9998,2 44736  53.0465  32.5277 0004412  35.1178 325.0128 15.68597674341109
STARLINK-1036,44741,53.0532,0.0001212,15.34054625,462.9007258036863,464.55919435480973,1 44741U 19074AE  26014.66668981  .01466235  00000+0  40216-1 0  9994,2 44741  53.0532  87.5541 0001212 102.2880 130.2203 15.34054625  5907
STARLINK-1039,44744,53.0507,0.0002759,15.17268234,512.1994073586675,516.0025442737242,1 44744U 19074AH  26014.60682331  .00009502  00000+0  48638-3 0  9993,2 44744  53.0507 102.7913 0002759  42.9971 317.1237 15.17268234340137
STARLINK-1042,44747,53.0466,0.0003345,15.4683515,423.71519797531437,428.26715972696456,1 44747U 19074AL  26014.23917693  .00012979  00000+0  26247-3 0  9991,2 44747  53.0466 355.4557 0003345  36.7849 323.3387 15.46835150341632
STARLINK-1043,44748,53.0547,0.0001615,15.47729172,422.2722828985052,424.4691698941315,1 44748U 19074AM  26014.48035627  .00013686  00000+0  26794-3 0  9990,2 44748  53.0547  95.1578 0001615 305.3589  54.7267 15.47729172340232
STARLINK-1046,44751,53.0553,0.0001357,15.37555769,452.41264468276677,454.26670745265073,1 44751U 19074AQ  26014.52026429  .00033993  00000+0  91540-3 0  9993,2 44751  53.0553 107.2490 0001357  47.4117 312.7000 15.37555769340066
STARLINK-1047,44752,53.0711,0.0004137,15.31194974,469.41186182633464,475.07986860901474,1 44752U 19074AR  26014.47628270  .00010664  00000+0  36045-3 0  9999,2 44752  53.0711  39.0050 0004137  58.3172 301.8231 15.31194974341032
STARLINK-1048,44753,53.0549,0.0001273,15.3844745,449.83043680627,451.56905864224063,1 44753U 19074AS  26014.66668981  .02014340  00000+0  47312-1 0  9998,2 44753  53.0549  67.0774 0001273  71.8677 334.1484 15.38447450  5813
STARLINK-1053,44758,53.0375,0.0003544,15.731042,347.64685474699127,352.41578045050574,1 44758U 19074AX  26014.12561897  .00065645  00000+0  47022-3 0  9994,2 44758  53.0375 357.7719 0003544  58.3065 301.8298 15.73104200341579
STARLINK-1060,44765,53.0421,0.0003666,15.896566,300.795506754298,305.69429596437385,1 44765U 19074BE  26014.66668981  .00182228  00000+0  59426-3 0  9991,2 44765  53.0421  36.7287 0003666 357.5711 141.9911 15.89656600  6059
STARLINK-1063,44768,53.0554,9.05e-05,15.06388726,546.6193641684467,547.8728585115996,1 44768U 19074BH  26014.55112631  .00004066  00000+0  29175-3 0  9999,2 44768  53.0554 109.6583 0000905  94.4262 265.6831 15.06388726340044
STARLINK-1067,44771,53.0559,0.0003018,15.44542986,430.6657314109734,434.77676544972564,1 44771U 19074BL  26014.62590685  .00054280  00000+0  11517-2 0  9993,2 44771  53.0559 103.9054 0003018  21.5070 338.6062 15.44542986340127
STARLINK-1068,44772,53.0529,0.0007247,15.4465529,427.4555328789502,437.3267123398591,1 44772U 19074BM  26014.48763074  .00038484  00000+0  81710-3 0  9993,2 44772  53.0529  82.4497 0007247   8.1390 351.9732 15.44655290340407
STARLINK-1112,44925,53.0416,0.0003213,15.76069437,339.43064694015357,343.74874331444244,1 44925U 20001M   26014.66668981  .00145912  00000+0  90593-3 0  9990,2 44925  53.0416 156.1907 0003213 170.3530  53.4517 15.76069437  5998
STARLINK-1114,44927,53.0539,0.0001471,15.40890902,442.47520670426,444.4821260333056,1 44927U 20001P   26014.66668981  .00053104  00000+0  12738-2 0  9997,2 44927  53.0539 226.8427 0001471  96.2298 171.3826 15.40890902  5846
STARLINK-1123,44930,53.0544,0.0001403,15.06394316,546.2573497876047,548.2006074812098,1 44930U 20001S   26014.58430670 -.00000063  00000+0  14670-4 0  9990,2 44930  53.0544 229.5067 0001403  95.8716 264.2434 15.06394316331693
STARLINK-1144,44933,53.0342,0.0005751,15.88883964,301.5670142787758,309.25443086928044,1 44933U 20001V   26014.66668981  .00208421  00000+0  70365-3 0  9999,2 44933  53.0342 128.0400 0005751 329.1161 251.8878 15.88883964  6014
STARLINK-1094,44941,53.0545,0.0001422,15.06394845,546.242570504266,548.2121441274867,1 44941U 20001AD  26014.53085680  .00000348  00000+0  42255-4 0  9999,2 44941  53.0545 209.7479 0001422  91.6838 268.4314 15.06394845331963
STARLINK-1122,44949,53.0551,0.0001297,15.06407957,546.2889564416637,548.0853855316182,1 44949U 20001AM  26013.95584683 -.00000125  00000+0  10508-4 0  9999,2 44949  53.0551 212.3271 0001297  90.6550 269.4588 15.06407957331871
STARLINK-1080,44961,53.0552,8.77e-05,15.394748,447.0626924681919,448.25993749263944,1 44961U 20001AZ  26013.89356959  .00065679  00000+0  16455-2 0  9998,2 44961  53.0552 188.4603 0000877 247.6425 112.4485 15.39474800332215
STARLINK-1090,44968,53.0554,0.0001347,15.06392009,546.3032015608869,548.1688970603709,1 44968U 20001BG  26014.48846973 -.00000003  00000+0  18721-4 0  9992,2 44968  53.0554 189.9370 0001347  89.0252 271.0892 15.06392009332241
STARLINK-1132,45044,53.1467,0.0002033,15.26931575,483.5961268273022,486.38667483508016,1 45044U 20006A   26014.66668981  .01434779  00000+0  49110-1 0  9998,2 45044  53.1467 148.3493 0002033  95.1874  89.6536 15.26931575  5667
STARLINK-1131,45047,53.0551,0.0001426,15.06388902,546.2580123639409,548.233131473452,1 45047U 20006D   26014.15864897  .00000831  00000+0  74696-4 0  9996,2 45047  53.0551 171.9603 0001426  91.2379 268.8774 15.06388902328234
STARLINK-1134,45048,53.0353,0.0003476,15.36644606,453.664360485579,458.4154802806288,1 45048U 20006E   26014.50975103  .00044328  00000+0  12242-2 0  9995,2 45048  53.0353 134.5857 0003476  39.4196 320.7059 15.36644606328793
STARLINK-1156,45054,53.055,0.0001633,15.06397787,546.087429945751,548.3492509999505,1 45054U 20006L   26014.46082685  .00000551  00000+0  55860-4 0  9996,2 45054  53.0550 170.0621 0001633  82.0437 278.0737 15.06397787328282
STARLINK-1159,45057,53.0487,0.0003227,15.64218747,373.30717245890355,377.6659611089053,1 45057U 20006P   26014.56257961  .00101705  00000+0  10410-2 0  9994,2 45057  53.0487 143.6039 0003227 232.5178 127.5543 15.64218747328676
STARLINK-1166,45060,53.0537,5.17e-05,15.26251379,486.6754218684464,487.38528017254157,1 45060U 20006S   26014.66668981  .01652446  00000+0  56945-1 0  9993,2 45060  53.0537 168.3779 0000517 136.8617 152.5679 15.26251379  5748
STARLINK-1169,45061,53.055,0.0001186,15.06391445,546.4164284565604,548.0591273538785,1 45061U 20006T   26013.69784507  .00000937  00000+0  81781-4 0  9999,2 45061  53.0550 173.4888 0001186  85.4112 274.7012 15.06391445328174
STARLINK-1171,45062,53.0505,0.0009391,15.46110442,421.72545776874085,434.50896442802605,1 45062U 20006U   26014.55682745  .00068979  00000+0  13805-2 0  9997,2 45062  53.0505 150.0421 0009391 177.0750 183.0313 15.46110442328582
STARLINK-1133,45064,53.1264,0.0002516,15.23878701,492.42547483424914,495.8836119388807,1 45064U 20006W   26014.66668981  .00075831  00000+0  30835-2 0  9994,2 45064  53.1264 148.5827 0002516  79.8022  95.0707 15.23878701  5543
STARLINK-1167,45071,53.1386,0.0002501,15.2559946,487.2684926974616,490.7034276021286,1 45071U 20006AD  26014.66668981  .00073934  00000+0  28568-2 0  9994,2 45071  53.1386 148.4253 0002501  77.3716  44.6488 15.25599460  5859
STARLINK-1168,45072,53.1367,0.0001051,15.25612129,488.22621212608647,489.66967338105405,1 45072U 20006AE  26014.66668981  .00070608  00000+0  27292-2 0  9993,2 45072  53.1367 148.4909 0001051  58.5997   7.9819 15.25612129  5856
STARLINK-1172,45074,53.1257,0.0001065,15.23733496,493.8591900428737,495.32308113575436,1 45074U 20006AG  26014.66668981  .00078145  00000+0  31900-2 0  9990,2 45074  53.1257 148.6346 0001065 131.0683 156.6098 15.23733496  5813
STARLINK-1153,45080,53.1471,0.0001374,15.26657693,484.8690986571237,486.75531189873345,1 45080U 20006AN  26014.66668981  .00890218  00000+0  31107-1 0  9998,2 45080  53.1471 148.3681 0001374  83.2726 110.6942 15.26657693  5697
STARLINK-1151,45081,53.0542,0.0004574,15.47892659,419.78101472672097,426.0025958778115,1 45081U 20006AP  26014.50875913  .00077913  00000+0  14652-2 0  9993,2 45081  53.0542 141.6128 0004574 311.1329  48.9283 15.47892659328690
STARLINK-1185,45087,53.0548,0.000113,15.06395984,546.441300649305,548.0064322051185,1 45087U 20006AV  26014.53822724 -.00002107  00000+0 -12259-3 0  9991,2 45087  53.0548 129.7162 0001130  84.2558 275.8560 15.06395984328866
STARLINK-1183,45088,53.0552,0.0001199,15.06391271,546.4079586954467,548.0686636950713,1 45088U 20006AW  26014.56034703  .00000432  00000+0  47881-4 0  9994,2 45088  53.0552 129.6180 0001199  90.1329 269.9797 15.06391271328869
STARLINK-1152,45096,53.0432,0.0002923,15.32100015,467.5462524982113,471.5494090502816,1 45096U 20006BE  26014.62427781  .00021898  00000+0  70641-3 0  9990,2 45096  53.0432 100.1804 0002923  45.2453 314.8785 15.32100015329284
